{
  "norad_id": 61853,
  "name": "STARLINK-32394",
  "history": [
    {
      "epoch": "2026-03-28T19:13:20.207712Z",
      "apogee_km": 483.77008768808173,
      "perigee_km": 482.35146643569533,
      "latitude_deg": 2.2398749977358145e-05,
      "longitude_deg": 15.232558215457905,
      "height_km": 482.7668621702856,
      "semi_major_axis_km": 6861.197777061888,
      "eccentricity": 0.00010338,
      "inclination_deg": 42.9986,
      "raan_deg": 129.7829,
      "arg_perigee_deg": 275.6759,
      "mean_anomaly_deg": 84.3975,
      "mean_motion_rev_day": 15.27576099
    },
    {
      "epoch": "2026-03-29T09:20:44.255040Z",
      "apogee_km": 483.76717629048744,
      "perigee_km": 482.3095881922836,
      "latitude_deg": -1.646959960258981e-05,
      "longitude_deg": 159.47799445312097,
      "height_km": 482.7557274522138,
      "semi_major_axis_km": 6861.175382241386,
      "eccentricity": 0.00010622,
      "inclination_deg": 42.9985,
      "raan_deg": 126.4586,
      "arg_perigee_deg": 274.6363,
      "mean_anomaly_deg": 85.4367,
      "mean_motion_rev_day": 15.27583578
    },
    {
      "epoch": "2026-03-30T10:27:15.279264Z",
      "apogee_km": 483.7733868526211,
      "perigee_km": 482.36972080667783,
      "latitude_deg": 1.7509474485000892e-05,
      "longitude_deg": 135.91098961017778,
      "height_km": 482.7931195732878,
      "semi_major_axis_km": 6861.208553829649,
      "eccentricity": 0.00010229,
      "inclination_deg": 43.0012,
      "raan_deg": 120.552,
      "arg_perigee_deg": 274.4907,
      "mean_anomaly_deg": 85.5828,
      "mean_motion_rev_day": 15.275725
    },
    {
      "epoch": "2026-03-30T18:18:02.186784Z",
      "apogee_km": 483.76055305995396,
      "perigee_km": 482.38392003873196,
      "latitude_deg": 4.1709178958351295e-05,
      "longitude_deg": 16.045729113304056,
      "height_km": 482.7265082766013,
      "semi_major_axis_km": 6861.209236549343,
      "eccentricity": 0.00010032,
      "inclination_deg": 42.9979,
      "raan_deg": 118.7044,
      "arg_perigee_deg": 280.1971,
      "mean_anomaly_deg": 79.8768,
      "mean_motion_rev_day": 15.27572272
    },
    {
      "epoch": "2026-03-31T17:50:22.612992Z",
      "apogee_km": 483.87637633803115,
      "perigee_km": 482.20499345399,
      "latitude_deg": -2.797561742535108e-06,
      "longitude_deg": 16.45446108586401,
      "height_km": 482.8199031937561,
      "semi_major_axis_km": 6861.17768489601,
      "eccentricity": 0.0001218,
      "inclination_deg": 43.001,
      "raan_deg": 113.165,
      "arg_perigee_deg": 269.8246,
      "mean_anomaly_deg": 90.2466,
      "mean_motion_rev_day": 15.27582809
    },
    {
      "epoch": "2026-04-01T17:22:43.472928Z",
      "apogee_km": 483.8668472363661,
      "perigee_km": 482.22016391502893,
      "latitude_deg": 5.705921684402848e-05,
      "longitude_deg": 16.86249214375886,
      "height_km": 482.79456308014323,
      "semi_major_axis_km": 6861.180505575698,
      "eccentricity": 0.00012,
      "inclination_deg": 43.0013,
      "raan_deg": 107.6266,
      "arg_perigee_deg": 271.783,
      "mean_anomaly_deg": 88.2885,
      "mean_motion_rev_day": 15.27581867
    },
    {
      "epoch": "2026-04-02T07:30:08.106912Z",
      "apogee_km": 483.9190735600396,
      "perigee_km": 482.191425351627,
      "latitude_deg": 2.9136504480924903e-05,
      "longitude_deg": 161.10678940263088,
      "height_km": 482.78337926036875,
      "semi_major_axis_km": 6861.192249455833,
      "eccentricity": 0.0001259,
      "inclination_deg": 43.002,
      "raan_deg": 104.3036,
      "arg_perigee_deg": 273.2305,
      "mean_anomaly_deg": 86.8403,
      "mean_motion_rev_day": 15.27577945
    },
    {
      "epoch": "2026-04-03T07:02:28.118400Z",
      "apogee_km": 483.67051928786077,
      "perigee_km": 482.39022545617627,
      "latitude_deg": -4.8832348959181087e-05,
      "longitude_deg": 161.5173175683052,
      "height_km": 482.81434811903085,
      "semi_major_axis_km": 6861.167372372018,
      "eccentricity": 9.33e-05,
      "inclination_deg": 43.0012,
      "raan_deg": 98.7643,
      "arg_perigee_deg": 269.3253,
      "mean_anomaly_deg": 90.7491,
      "mean_motion_rev_day": 15.27586253
    },
    {
      "epoch": "2026-04-04T09:43:08.730624Z",
      "apogee_km": 484.188226381013,
      "perigee_km": 481.94063401650783,
      "latitude_deg": 4.07046002470654e-05,
      "longitude_deg": 113.9757706227032,
      "height_km": 482.65942802683185,
      "semi_major_axis_km": 6861.20143019876,
      "eccentricity": 0.00016379,
      "inclination_deg": 43.0033,
      "raan_deg": 92.4875,
      "arg_perigee_deg": 279.3341,
      "mean_anomaly_deg": 80.7326,
      "mean_motion_rev_day": 15.27574879
    },
    {
      "epoch": "2026-04-05T06:07:10.632288Z",
      "apogee_km": 484.0310135961099,
      "perigee_km": 481.97129992145074,
      "latitude_deg": -5.4989112723817995e-06,
      "longitude_deg": 162.32937680832927,
      "height_km": 482.7030428956362,
      "semi_major_axis_km": 6861.1381567587805,
      "eccentricity": 0.0001501,
      "inclination_deg": 43.0023,
      "raan_deg": 87.6869,
      "arg_perigee_deg": 274.1853,
      "mean_anomaly_deg": 85.8827,
      "mean_motion_rev_day": 15.2759601
    },
    {
      "epoch": "2026-04-07T05:11:52.540512Z",
      "apogee_km": 483.83008774733844,
      "perigee_km": 482.2299263779514,
      "latitude_deg": -6.680256212248512e-06,
      "longitude_deg": 163.14011609611094,
      "height_km": 482.9474947790421,
      "semi_major_axis_km": 6861.167007062644,
      "eccentricity": 0.00011661,
      "inclination_deg": 43.0004,
      "raan_deg": 76.6057,
      "arg_perigee_deg": 259.8515,
      "mean_anomaly_deg": 100.2205,
      "mean_motion_rev_day": 15.27586375
    },
    {
      "epoch": "2026-04-08T07:52:32.506464Z",
      "apogee_km": 483.8832350684679,
      "perigee_km": 482.2600103325085,
      "latitude_deg": 1.5707822037671776e-05,
      "longitude_deg": 115.60179484649568,
      "height_km": 483.16341864897544,
      "semi_major_axis_km": 6861.2086227004875,
      "eccentricity": 0.00011829,
      "inclination_deg": 43.0015,
      "raan_deg": 70.3295,
      "arg_perigee_deg": 247.1446,
      "mean_anomaly_deg": 112.9281,
      "mean_motion_rev_day": 15.27572477
    },
    {
      "epoch": "2026-04-09T21:32:17.519136Z",
      "apogee_km": 483.94272098177953,
      "perigee_km": 482.1601842217942,
      "latitude_deg": -4.9721210180867604e-05,
      "longitude_deg": -99.74537646959688,
      "height_km": 483.0040342165128,
      "semi_major_axis_km": 6861.188452601787,
      "eccentricity": 0.0001299,
      "inclination_deg": 43.0015,
      "raan_deg": 61.4667,
      "arg_perigee_deg": 258.6215,
      "mean_anomaly_deg": 101.449,
      "mean_motion_rev_day": 15.27579213
    },
    {
      "epoch": "2026-04-10T06:57:13.586112Z",
      "apogee_km": 483.9088677812515,
      "perigee_km": 482.1736757963163,
      "latitude_deg": -3.2655382175117865e-05,
      "longitude_deg": 116.42004445029627,
      "height_km": 482.9047338492219,
      "semi_major_axis_km": 6861.178271788784,
      "eccentricity": 0.00012645,
      "inclination_deg": 43.0025,
      "raan_deg": 59.2524,
      "arg_perigee_deg": 264.2708,
      "mean_anomaly_deg": 95.7999,
      "mean_motion_rev_day": 15.27582613
    },
    {
      "epoch": "2026-04-11T06:29:34.312128Z",
      "apogee_km": 483.8595728162618,
      "perigee_km": 482.23896062006406,
      "latitude_deg": -2.246070013943255e-05,
      "longitude_deg": 116.82947870774784,
      "height_km": 482.81173775854927,
      "semi_major_axis_km": 6861.186266718163,
      "eccentricity": 0.0001181,
      "inclination_deg": 43.0029,
      "raan_deg": 53.7149,
      "arg_perigee_deg": 271.0164,
      "mean_anomaly_deg": 89.0552,
      "mean_motion_rev_day": 15.27579943
    },
    {
      "epoch": "2026-04-13T04:00:07.216416Z",
      "apogee_km": 483.8454166380443,
      "perigee_km": 482.3002721810835,
      "latitude_deg": 8.861105809390618e-06,
      "longitude_deg": 141.61561538903123,
      "height_km": 482.79914381094204,
      "semi_major_axis_km": 6861.209844409564,
      "eccentricity": 0.0001126,
      "inclination_deg": 43.0027,
      "raan_deg": 43.0071,
      "arg_perigee_deg": 273.7461,
      "mean_anomaly_deg": 86.3262,
      "mean_motion_rev_day": 15.27572069
    },
    {
      "epoch": "2026-04-14T05:06:36.931680Z",
      "apogee_km": 483.84667035536495,
      "perigee_km": 482.2685955897814,
      "latitude_deg": 7.57634836169794e-06,
      "longitude_deg": 118.05264187023921,
      "height_km": 482.8211203296073,
      "semi_major_axis_km": 6861.194632972572,
      "eccentricity": 0.000115,
      "inclination_deg": 43.0037,
      "raan_deg": 37.0991,
      "arg_perigee_deg": 270.9743,
      "mean_anomaly_deg": 89.0977,
      "mean_motion_rev_day": 15.27577149
    },
    {
      "epoch": "2026-04-15T03:04:48.166464Z",
      "apogee_km": 483.85359542459537,
      "perigee_km": 482.3239537504096,
      "latitude_deg": 1.1889963397077211e-06,
      "longitude_deg": 142.43395779395314,
      "height_km": 482.88926059798797,
      "semi_major_axis_km": 6861.225774587502,
      "eccentricity": 0.00011147,
      "inclination_deg": 43.0039,
      "raan_deg": 31.9295,
      "arg_perigee_deg": 268.2322,
      "mean_anomaly_deg": 91.8402,
      "mean_motion_rev_day": 15.27566749
    },
    {
      "epoch": "2026-04-16T02:37:09.213888Z",
      "apogee_km": 483.9981792608987,
      "perigee_km": 482.1134096002688,
      "latitude_deg": -1.049170312448585e-05,
      "longitude_deg": 142.83952992601704,
      "height_km": 483.03937674695544,
      "semi_major_axis_km": 6861.1927944305835,
      "eccentricity": 0.00013735,
      "inclination_deg": 43.0057,
      "raan_deg": 26.3895,
      "arg_perigee_deg": 257.3534,
      "mean_anomaly_deg": 102.7164,
      "mean_motion_rev_day": 15.27577763
    }
  ]
}